{
"type": "FeatureCollection",
"name": "streetview_point",
"features": [
{ "type": "Feature", "properties": { "ten": "1", "toaDoX": "105.702975142526", "toaDoY": "20.5795143122425", "ghiChu": null }, "geometry": { "type": "Point", "coordinates": [ 105.7029751, 20.5795143 ] } },
{ "type": "Feature", "properties": { "ten": "2", "toaDoX": "105.703557393662", "toaDoY": "20.5799534956915", "ghiChu": null }, "geometry": { "type": "Point", "coordinates": [ 105.7035574, 20.5799535 ] } },
{ "type": "Feature", "properties": { "ten": "3", "toaDoX": "105.704021757985", "toaDoY": "20.5803180186004", "ghiChu": null }, "geometry": { "type": "Point", "coordinates": [ 105.7040218, 20.580318 ] } },
{ "type": "Feature", "properties": { "ten": "4", "toaDoX": "105.702184668195", "toaDoY": "20.5824395544688", "ghiChu": null }, "geometry": { "type": "Point", "coordinates": [ 105.7021847, 20.5824396 ] } },
{ "type": "Feature", "properties": { "ten": "5", "toaDoX": "105.70178690856", "toaDoY": "20.5820802069451", "ghiChu": null }, "geometry": { "type": "Point", "coordinates": [ 105.7017869, 20.5820802 ] } },
{ "type": "Feature", "properties": { "ten": "6", "toaDoX": "105.702535658841", "toaDoY": "20.5811408538754", "ghiChu": null }, "geometry": { "type": "Point", "coordinates": [ 105.7025357, 20.5811409 ] } },
{ "type": "Feature", "properties": { "ten": "7", "toaDoX": "105.70240938895", "toaDoY": "20.5821800449888", "ghiChu": null }, "geometry": { "type": "Point", "coordinates": [ 105.7024094, 20.58218 ] } },
{ "type": "Feature", "properties": { "ten": "8", "toaDoX": "105.702954466003", "toaDoY": "20.5825638216964", "ghiChu": null }, "geometry": { "type": "Point", "coordinates": [ 105.7029545, 20.5825638 ] } },
{ "type": "Feature", "properties": { "ten": "9", "toaDoX": "105.703397060553", "toaDoY": "20.581804178386", "ghiChu": null }, "geometry": { "type": "Point", "coordinates": [ 105.7033971, 20.5818042 ] } },
{ "type": "Feature", "properties": { "ten": "10", "toaDoX": "105.704665023594", "toaDoY": "20.579575133435", "ghiChu": null }, "geometry": { "type": "Point", "coordinates": [ 105.704665, 20.5795751 ] } },
{ "type": "Feature", "properties": { "ten": "11", "toaDoX": "105.705062750889", "toaDoY": "20.5798805476102", "ghiChu": null }, "geometry": { "type": "Point", "coordinates": [ 105.7050628, 20.5798805 ] } },
{ "type": "Feature", "properties": { "ten": "12", "toaDoX": "105.704197316639", "toaDoY": "20.5808800067071", "ghiChu": null }, "geometry": { "type": "Point", "coordinates": [ 105.7041973, 20.58088 ] } },
{ "type": "Feature", "properties": { "ten": "13", "toaDoX": "105.714658670637", "toaDoY": "20.5769282466522", "ghiChu": null }, "geometry": { "type": "Point", "coordinates": [ 105.7146587, 20.5769282 ] } },
{ "type": "Feature", "properties": { "ten": "14", "toaDoX": "105.712707195666", "toaDoY": "20.5774654452889", "ghiChu": null }, "geometry": { "type": "Point", "coordinates": [ 105.7127072, 20.5774654 ] } },
{ "type": "Feature", "properties": { "ten": "15", "toaDoX": "105.713447975196", "toaDoY": "20.5786571632035", "ghiChu": null }, "geometry": { "type": "Point", "coordinates": [ 105.713448, 20.5786572 ] } },
{ "type": "Feature", "properties": { "ten": "16", "toaDoX": "105.71245295717", "toaDoY": "20.577944391988", "ghiChu": null }, "geometry": { "type": "Point", "coordinates": [ 105.712453, 20.5779444 ] } },
{ "type": "Feature", "properties": { "ten": "17", "toaDoX": "105.715794632534", "toaDoY": "20.5781507837379", "ghiChu": null }, "geometry": { "type": "Point", "coordinates": [ 105.7157946, 20.5781508 ] } },
{ "type": "Feature", "properties": { "ten": "18", "toaDoX": "105.709548150494", "toaDoY": "20.5746074050346", "ghiChu": null }, "geometry": { "type": "Point", "coordinates": [ 105.7095482, 20.5746074 ] } },
{ "type": "Feature", "properties": { "ten": "19", "toaDoX": "105.711986710876", "toaDoY": "20.5745699049417", "ghiChu": null }, "geometry": { "type": "Point", "coordinates": [ 105.7119867, 20.5745699 ] } },
{ "type": "Feature", "properties": { "ten": "20", "toaDoX": "105.710597058454", "toaDoY": "20.5756776529109", "ghiChu": null }, "geometry": { "type": "Point", "coordinates": [ 105.7105971, 20.5756777 ] } },
{ "type": "Feature", "properties": { "ten": "21", "toaDoX": "105.705720608731", "toaDoY": "20.578356052479", "ghiChu": null }, "geometry": { "type": "Point", "coordinates": [ 105.7057206, 20.5783561 ] } },
{ "type": "Feature", "properties": { "ten": "22", "toaDoX": "105.714046867623", "toaDoY": "20.5760410649685", "ghiChu": null }, "geometry": { "type": "Point", "coordinates": [ 105.7140469, 20.5760411 ] } },
{ "type": "Feature", "properties": { "ten": "23", "toaDoX": "105.709060402125", "toaDoY": "20.5792441912089", "ghiChu": null }, "geometry": { "type": "Point", "coordinates": [ 105.7090604, 20.5792442 ] } },
{ "type": "Feature", "properties": { "ten": "24", "toaDoX": "105.709384030986", "toaDoY": "20.5797140740394", "ghiChu": null }, "geometry": { "type": "Point", "coordinates": [ 105.709384, 20.5797141 ] } },
{ "type": "Feature", "properties": { "ten": "25", "toaDoX": "105.709231568916", "toaDoY": "20.5771550441813", "ghiChu": null }, "geometry": { "type": "Point", "coordinates": [ 105.7092316, 20.577155 ] } },
{ "type": "Feature", "properties": { "ten": "26", "toaDoX": "105.709627237273", "toaDoY": "20.5765985374875", "ghiChu": null }, "geometry": { "type": "Point", "coordinates": [ 105.7096272, 20.5765985 ] } },
{ "type": "Feature", "properties": { "ten": "27", "toaDoX": "105.707741592643", "toaDoY": "20.5771185530766", "ghiChu": null }, "geometry": { "type": "Point", "coordinates": [ 105.7077416, 20.5771186 ] } },
{ "type": "Feature", "properties": { "ten": "28", "toaDoX": "105.710386911068", "toaDoY": "20.5761749997472", "ghiChu": null }, "geometry": { "type": "Point", "coordinates": [ 105.7103869, 20.576175 ] } },
{ "type": "Feature", "properties": { "ten": "29", "toaDoX": "105.712013972948", "toaDoY": "20.578685017772", "ghiChu": null }, "geometry": { "type": "Point", "coordinates": [ 105.712014, 20.578685 ] } },
{ "type": "Feature", "properties": { "ten": "30", "toaDoX": "105.710329500636", "toaDoY": "20.5804216186801", "ghiChu": null }, "geometry": { "type": "Point", "coordinates": [ 105.7103295, 20.5804216 ] } },
{ "type": "Feature", "properties": { "ten": "31", "toaDoX": "105.712750569023", "toaDoY": "20.5818034896259", "ghiChu": null }, "geometry": { "type": "Point", "coordinates": [ 105.7127506, 20.5818035 ] } },
{ "type": "Feature", "properties": { "ten": "32", "toaDoX": "105.712197637101", "toaDoY": "20.576947077567", "ghiChu": null }, "geometry": { "type": "Point", "coordinates": [ 105.7121976, 20.5769471 ] } },
{ "type": "Feature", "properties": { "ten": "33", "toaDoX": "105.707437407817", "toaDoY": "20.5766774221112", "ghiChu": null }, "geometry": { "type": "Point", "coordinates": [ 105.7074374, 20.5766774 ] } },
{ "type": "Feature", "properties": { "ten": "34", "toaDoX": "105.714920378625", "toaDoY": "20.5763244383753", "ghiChu": null }, "geometry": { "type": "Point", "coordinates": [ 105.7149204, 20.5763244 ] } },
{ "type": "Feature", "properties": { "ten": "35", "toaDoX": "105.71011356271", "toaDoY": "20.5781108178706", "ghiChu": null }, "geometry": { "type": "Point", "coordinates": [ 105.7101136, 20.5781108 ] } },
{ "type": "Feature", "properties": { "ten": "36", "toaDoX": "105.711583686215", "toaDoY": "20.5793768230055", "ghiChu": null }, "geometry": { "type": "Point", "coordinates": [ 105.7115837, 20.5793768 ] } },
{ "type": "Feature", "properties": { "ten": "37", "toaDoX": "105.71468331951", "toaDoY": "20.5751764450432", "ghiChu": null }, "geometry": { "type": "Point", "coordinates": [ 105.7146833, 20.5751764 ] } },
{ "type": "Feature", "properties": { "ten": "38", "toaDoX": "105.714886707972", "toaDoY": "20.5782555181112", "ghiChu": null }, "geometry": { "type": "Point", "coordinates": [ 105.7148867, 20.5782555 ] } },
{ "type": "Feature", "properties": { "ten": "39", "toaDoX": "105.717643850479", "toaDoY": "20.5762520251222", "ghiChu": null }, "geometry": { "type": "Point", "coordinates": [ 105.7176439, 20.576252 ] } },
{ "type": "Feature", "properties": { "ten": "40", "toaDoX": "105.705830282248", "toaDoY": "20.5773824553043", "ghiChu": null }, "geometry": { "type": "Point", "coordinates": [ 105.7058303, 20.5773825 ] } },
{ "type": "Feature", "properties": { "ten": "41", "toaDoX": "105.708413139912", "toaDoY": "20.5783134972384", "ghiChu": null }, "geometry": { "type": "Point", "coordinates": [ 105.7084131, 20.5783135 ] } },
{ "type": "Feature", "properties": { "ten": "42", "toaDoX": "105.708253675474", "toaDoY": "20.5773866628337", "ghiChu": null }, "geometry": { "type": "Point", "coordinates": [ 105.7082537, 20.5773867 ] } },
{ "type": "Feature", "properties": { "ten": "43", "toaDoX": "105.70883544152", "toaDoY": "20.5780626379701", "ghiChu": null }, "geometry": { "type": "Point", "coordinates": [ 105.7088354, 20.5780626 ] } },
{ "type": "Feature", "properties": { "ten": "44", "toaDoX": "105.70718656046", "toaDoY": "20.5774822409156", "ghiChu": null }, "geometry": { "type": "Point", "coordinates": [ 105.7071866, 20.5774822 ] } },
{ "type": "Feature", "properties": { "ten": "45", "toaDoX": "105.706075684017", "toaDoY": "20.5779459781106", "ghiChu": null }, "geometry": { "type": "Point", "coordinates": [ 105.7060757, 20.577946 ] } },
{ "type": "Feature", "properties": { "ten": "46", "toaDoX": "105.711870824611", "toaDoY": "20.5754412538759", "ghiChu": null }, "geometry": { "type": "Point", "coordinates": [ 105.7118708, 20.5754413 ] } },
{ "type": "Feature", "properties": { "ten": "47", "toaDoX": "105.715101136728", "toaDoY": "20.5781431710323", "ghiChu": null }, "geometry": { "type": "Point", "coordinates": [ 105.7151011, 20.5781432 ] } },
{ "type": "Feature", "properties": { "ten": "48", "toaDoX": "105.708235587896", "toaDoY": "20.5758329387264", "ghiChu": null }, "geometry": { "type": "Point", "coordinates": [ 105.7082356, 20.5758329 ] } },
{ "type": "Feature", "properties": { "ten": "49", "toaDoX": "105.711567392573", "toaDoY": "20.5761908594742", "ghiChu": null }, "geometry": { "type": "Point", "coordinates": [ 105.7115674, 20.5761909 ] } },
{ "type": "Feature", "properties": { "ten": "50", "toaDoX": "105.711006805208", "toaDoY": "20.5772355222164", "ghiChu": null }, "geometry": { "type": "Point", "coordinates": [ 105.7110068, 20.5772355 ] } },
{ "type": "Feature", "properties": { "ten": "51", "toaDoX": "105.705267155345", "toaDoY": "20.578007255749", "ghiChu": null }, "geometry": { "type": "Point", "coordinates": [ 105.7052672, 20.5780073 ] } },
{ "type": "Feature", "properties": { "ten": "52", "toaDoX": "105.709200690227", "toaDoY": "20.5755391325014", "ghiChu": null }, "geometry": { "type": "Point", "coordinates": [ 105.7092007, 20.5755391 ] } },
{ "type": "Feature", "properties": { "ten": "53", "toaDoX": "105.715427961795", "toaDoY": "20.5786565324578", "ghiChu": null }, "geometry": { "type": "Point", "coordinates": [ 105.715428, 20.5786565 ] } },
{ "type": "Feature", "properties": { "ten": "54", "toaDoX": "105.71330365815", "toaDoY": "20.5803337416572", "ghiChu": null }, "geometry": { "type": "Point", "coordinates": [ 105.7133037, 20.5803337 ] } },
{ "type": "Feature", "properties": { "ten": "55", "toaDoX": "105.715685223123", "toaDoY": "20.5759035953097", "ghiChu": null }, "geometry": { "type": "Point", "coordinates": [ 105.7156852, 20.5759036 ] } },
{ "type": "Feature", "properties": { "ten": "56", "toaDoX": "105.713733157959", "toaDoY": "20.5781485222968", "ghiChu": null }, "geometry": { "type": "Point", "coordinates": [ 105.7137332, 20.5781485 ] } },
{ "type": "Feature", "properties": { "ten": "57", "toaDoX": "105.714913142695", "toaDoY": "20.5756400159961", "ghiChu": null }, "geometry": { "type": "Point", "coordinates": [ 105.7149131, 20.57564 ] } },
{ "type": "Feature", "properties": { "ten": "58", "toaDoX": "105.715428440597", "toaDoY": "20.5767498090914", "ghiChu": null }, "geometry": { "type": "Point", "coordinates": [ 105.7154284, 20.5767498 ] } },
{ "type": "Feature", "properties": { "ten": "59", "toaDoX": "105.711530046013", "toaDoY": "20.5784594057971", "ghiChu": null }, "geometry": { "type": "Point", "coordinates": [ 105.71153, 20.5784594 ] } },
{ "type": "Feature", "properties": { "ten": "60", "toaDoX": "105.70459876296", "toaDoY": "20.5811882767627", "ghiChu": null }, "geometry": { "type": "Point", "coordinates": [ 105.7045988, 20.5811883 ] } },
{ "type": "Feature", "properties": { "ten": "61", "toaDoX": "105.70546419721", "toaDoY": "20.5801888154801", "ghiChu": null }, "geometry": { "type": "Point", "coordinates": [ 105.7054642, 20.5801888 ] } },
{ "type": "Feature", "properties": { "ten": "62", "toaDoX": "105.705292498616", "toaDoY": "20.5816203373566", "ghiChu": null }, "geometry": { "type": "Point", "coordinates": [ 105.7052925, 20.5816203 ] } },
{ "type": "Feature", "properties": { "ten": "63", "toaDoX": "105.705745998714", "toaDoY": "20.5804256949321", "ghiChu": null }, "geometry": { "type": "Point", "coordinates": [ 105.705746, 20.5804257 ] } },
{ "type": "Feature", "properties": { "ten": "64", "toaDoX": "105.707205106179", "toaDoY": "20.5761889032899", "ghiChu": null }, "geometry": { "type": "Point", "coordinates": [ 105.7072051, 20.5761889 ] } },
{ "type": "Feature", "properties": { "ten": "65", "toaDoX": "105.70998207181", "toaDoY": "20.5740855903594", "ghiChu": null }, "geometry": { "type": "Point", "coordinates": [ 105.7099821, 20.5740856 ] } },
{ "type": "Feature", "properties": { "ten": "66", "toaDoX": "105.70780262598", "toaDoY": "20.5786934731266", "ghiChu": null }, "geometry": { "type": "Point", "coordinates": [ 105.7078026, 20.5786935 ] } },
{ "type": "Feature", "properties": { "ten": "67", "toaDoX": "105.713417965177", "toaDoY": "20.5775836184751", "ghiChu": null }, "geometry": { "type": "Point", "coordinates": [ 105.713418, 20.5775836 ] } },
{ "type": "Feature", "properties": { "ten": "68", "toaDoX": "105.716474349981", "toaDoY": "20.5779932178123", "ghiChu": null }, "geometry": { "type": "Point", "coordinates": [ 105.7164743, 20.5779932 ] } },
{ "type": "Feature", "properties": { "ten": "69", "toaDoX": "105.705800694437", "toaDoY": "20.5766314477154", "ghiChu": null }, "geometry": { "type": "Point", "coordinates": [ 105.7058007, 20.5766314 ] } },
{ "type": "Feature", "properties": { "ten": "70", "toaDoX": "105.706676804266", "toaDoY": "20.5756707120495", "ghiChu": null }, "geometry": { "type": "Point", "coordinates": [ 105.7066768, 20.5756707 ] } },
{ "type": "Feature", "properties": { "ten": "71", "toaDoX": "105.711175276154", "toaDoY": "20.580049813075", "ghiChu": null }, "geometry": { "type": "Point", "coordinates": [ 105.7111753, 20.5800498 ] } },
{ "type": "Feature", "properties": { "ten": "72", "toaDoX": "105.716181648318", "toaDoY": "20.5757053019756", "ghiChu": null }, "geometry": { "type": "Point", "coordinates": [ 105.7161816, 20.5757053 ] } },
{ "type": "Feature", "properties": { "ten": "73", "toaDoX": "105.716041830036", "toaDoY": "20.5760369339338", "ghiChu": null }, "geometry": { "type": "Point", "coordinates": [ 105.7160418, 20.5760369 ] } },
{ "type": "Feature", "properties": { "ten": "74", "toaDoX": "105.702829977471", "toaDoY": "20.5829567261743", "ghiChu": null }, "geometry": { "type": "Point", "coordinates": [ 105.70283, 20.5829567 ] } },
{ "type": "Feature", "properties": { "ten": "75", "toaDoX": "105.706795358527", "toaDoY": "20.5802249854351", "ghiChu": null }, "geometry": { "type": "Point", "coordinates": [ 105.7067954, 20.580225 ] } },
{ "type": "Feature", "properties": { "ten": "76", "toaDoX": "105.715823187282", "toaDoY": "20.5788419455104", "ghiChu": null }, "geometry": { "type": "Point", "coordinates": [ 105.7158232, 20.5788419 ] } },
{ "type": "Feature", "properties": { "ten": "77", "toaDoX": "105.710591911107", "toaDoY": "20.5790703153736", "ghiChu": null }, "geometry": { "type": "Point", "coordinates": [ 105.7105919, 20.5790703 ] } },
{ "type": "Feature", "properties": { "ten": "78", "toaDoX": "105.713007434194", "toaDoY": "20.5768338447884", "ghiChu": null }, "geometry": { "type": "Point", "coordinates": [ 105.7130074, 20.5768338 ] } },
{ "type": "Feature", "properties": { "ten": "79", "toaDoX": "105.701068701897", "toaDoY": "20.5815443575043", "ghiChu": null }, "geometry": { "type": "Point", "coordinates": [ 105.7010687, 20.5815444 ] } },
{ "type": "Feature", "properties": { "ten": "80", "toaDoX": "105.710901933187", "toaDoY": "20.578028162954", "ghiChu": null }, "geometry": { "type": "Point", "coordinates": [ 105.7109019, 20.5780282 ] } },
{ "type": "Feature", "properties": { "ten": "81", "toaDoX": "105.7108365538", "toaDoY": "20.5770010599022", "ghiChu": null }, "geometry": { "type": "Point", "coordinates": [ 105.7108366, 20.5770011 ] } },
{ "type": "Feature", "properties": { "ten": "82", "toaDoX": "105.703008403547", "toaDoY": "20.5814964553698", "ghiChu": null }, "geometry": { "type": "Point", "coordinates": [ 105.7030084, 20.5814965 ] } },
{ "type": "Feature", "properties": { "ten": "83", "toaDoX": "105.704174424871", "toaDoY": "20.5792483129059", "ghiChu": null }, "geometry": { "type": "Point", "coordinates": [ 105.7041744, 20.5792483 ] } },
{ "type": "Feature", "properties": { "ten": "84", "toaDoX": "105.704518542507", "toaDoY": "20.5788509046112", "ghiChu": null }, "geometry": { "type": "Point", "coordinates": [ 105.7045185, 20.5788509 ] } },
{ "type": "Feature", "properties": { "ten": "85", "toaDoX": "105.704856487818", "toaDoY": "20.5784606252404", "ghiChu": null }, "geometry": { "type": "Point", "coordinates": [ 105.7048565, 20.5784606 ] } },
{ "type": "Feature", "properties": { "ten": "86", "toaDoX": "105.705574420495", "toaDoY": "20.5776779517542", "ghiChu": null }, "geometry": { "type": "Point", "coordinates": [ 105.7055744, 20.577678 ] } },
{ "type": "Feature", "properties": { "ten": "87", "toaDoX": "105.706215628962", "toaDoY": "20.5769374152753", "ghiChu": null }, "geometry": { "type": "Point", "coordinates": [ 105.7062156, 20.5769374 ] } },
{ "type": "Feature", "properties": { "ten": "88", "toaDoX": "105.705667844386", "toaDoY": "20.5771282288129", "ghiChu": null }, "geometry": { "type": "Point", "coordinates": [ 105.7056678, 20.5771282 ] } },
{ "type": "Feature", "properties": { "ten": "89", "toaDoX": "105.706678366436", "toaDoY": "20.576489862704", "ghiChu": null }, "geometry": { "type": "Point", "coordinates": [ 105.7066784, 20.5764899 ] } },
{ "type": "Feature", "properties": { "ten": "90", "toaDoX": "105.706245665032", "toaDoY": "20.5760986681652", "ghiChu": null }, "geometry": { "type": "Point", "coordinates": [ 105.7062457, 20.5760987 ] } },
{ "type": "Feature", "properties": { "ten": "91", "toaDoX": "105.707562976124", "toaDoY": "20.5757519839399", "ghiChu": null }, "geometry": { "type": "Point", "coordinates": [ 105.707563, 20.575752 ] } },
{ "type": "Feature", "properties": { "ten": "92", "toaDoX": "105.707688664805", "toaDoY": "20.5760180558103", "ghiChu": null }, "geometry": { "type": "Point", "coordinates": [ 105.7076887, 20.5760181 ] } },
{ "type": "Feature", "properties": { "ten": "93", "toaDoX": "105.708774657017", "toaDoY": "20.5756504773302", "ghiChu": null }, "geometry": { "type": "Point", "coordinates": [ 105.7087747, 20.5756505 ] } },
{ "type": "Feature", "properties": { "ten": "94", "toaDoX": "105.709085996026", "toaDoY": "20.5751559150626", "ghiChu": null }, "geometry": { "type": "Point", "coordinates": [ 105.709086, 20.5751559 ] } },
{ "type": "Feature", "properties": { "ten": "95", "toaDoX": "105.709241775575", "toaDoY": "20.5748676943981", "ghiChu": null }, "geometry": { "type": "Point", "coordinates": [ 105.7092418, 20.5748677 ] } },
{ "type": "Feature", "properties": { "ten": "96", "toaDoX": "105.709781283073", "toaDoY": "20.5743656504221", "ghiChu": null }, "geometry": { "type": "Point", "coordinates": [ 105.7097813, 20.5743657 ] } },
{ "type": "Feature", "properties": { "ten": "97", "toaDoX": "105.710204061687", "toaDoY": "20.5738950068217", "ghiChu": null }, "geometry": { "type": "Point", "coordinates": [ 105.7102041, 20.573895 ] } },
{ "type": "Feature", "properties": { "ten": "98", "toaDoX": "105.710454323342", "toaDoY": "20.5742551322183", "ghiChu": null }, "geometry": { "type": "Point", "coordinates": [ 105.7104543, 20.5742551 ] } },
{ "type": "Feature", "properties": { "ten": "99", "toaDoX": "105.710899364903", "toaDoY": "20.5743796323443", "ghiChu": null }, "geometry": { "type": "Point", "coordinates": [ 105.7108994, 20.5743796 ] } },
{ "type": "Feature", "properties": { "ten": "100", "toaDoX": "105.711331329689", "toaDoY": "20.5743917808464", "ghiChu": null }, "geometry": { "type": "Point", "coordinates": [ 105.7113313, 20.5743918 ] } },
{ "type": "Feature", "properties": { "ten": "101", "toaDoX": "105.711696696973", "toaDoY": "20.5744051530283", "ghiChu": null }, "geometry": { "type": "Point", "coordinates": [ 105.7116967, 20.5744052 ] } },
{ "type": "Feature", "properties": { "ten": "102", "toaDoX": "105.712081806532", "toaDoY": "20.5748025207565", "ghiChu": null }, "geometry": { "type": "Point", "coordinates": [ 105.7120818, 20.5748025 ] } },
{ "type": "Feature", "properties": { "ten": "103", "toaDoX": "105.711985764052", "toaDoY": "20.575157301894", "ghiChu": null }, "geometry": { "type": "Point", "coordinates": [ 105.7119858, 20.5751573 ] } },
{ "type": "Feature", "properties": { "ten": "104", "toaDoX": "105.711616064193", "toaDoY": "20.575349793795", "ghiChu": null }, "geometry": { "type": "Point", "coordinates": [ 105.7116161, 20.5753498 ] } },
{ "type": "Feature", "properties": { "ten": "105", "toaDoX": "105.711211114443", "toaDoY": "20.5752044154658", "ghiChu": null }, "geometry": { "type": "Point", "coordinates": [ 105.7112111, 20.5752044 ] } },
{ "type": "Feature", "properties": { "ten": "106", "toaDoX": "105.710854530886", "toaDoY": "20.5750764014151", "ghiChu": null }, "geometry": { "type": "Point", "coordinates": [ 105.7108545, 20.5750764 ] } },
{ "type": "Feature", "properties": { "ten": "107", "toaDoX": "105.710469268613", "toaDoY": "20.5749380907137", "ghiChu": null }, "geometry": { "type": "Point", "coordinates": [ 105.7104693, 20.5749381 ] } },
{ "type": "Feature", "properties": { "ten": "108", "toaDoX": "105.710031040773", "toaDoY": "20.5747807645249", "ghiChu": null }, "geometry": { "type": "Point", "coordinates": [ 105.710031, 20.5747808 ] } },
{ "type": "Feature", "properties": { "ten": "109", "toaDoX": "105.711724348016", "toaDoY": "20.57580311231", "ghiChu": null }, "geometry": { "type": "Point", "coordinates": [ 105.7117243, 20.5758031 ] } },
{ "type": "Feature", "properties": { "ten": "110", "toaDoX": "105.711318786513", "toaDoY": "20.576018407352", "ghiChu": null }, "geometry": { "type": "Point", "coordinates": [ 105.7113188, 20.5760184 ] } },
{ "type": "Feature", "properties": { "ten": "111", "toaDoX": "105.71088383393", "toaDoY": "20.5758052467933", "ghiChu": null }, "geometry": { "type": "Point", "coordinates": [ 105.7108838, 20.5758052 ] } },
{ "type": "Feature", "properties": { "ten": "112", "toaDoX": "105.710202483347", "toaDoY": "20.5755594303113", "ghiChu": null }, "geometry": { "type": "Point", "coordinates": [ 105.7102025, 20.5755594 ] } },
{ "type": "Feature", "properties": { "ten": "113", "toaDoX": "105.709723068649", "toaDoY": "20.5755018403673", "ghiChu": null }, "geometry": { "type": "Point", "coordinates": [ 105.7097231, 20.5755018 ] } },
{ "type": "Feature", "properties": { "ten": "114", "toaDoX": "105.703255426776", "toaDoY": "20.5803096205228", "ghiChu": null }, "geometry": { "type": "Point", "coordinates": [ 105.7032554, 20.5803096 ] } },
{ "type": "Feature", "properties": { "ten": "115", "toaDoX": "105.702942154592", "toaDoY": "20.5806714026579", "ghiChu": null }, "geometry": { "type": "Point", "coordinates": [ 105.7029422, 20.5806714 ] } },
{ "type": "Feature", "properties": { "ten": "116", "toaDoX": "105.702118028472", "toaDoY": "20.5816231378131", "ghiChu": null }, "geometry": { "type": "Point", "coordinates": [ 105.702118, 20.5816231 ] } },
{ "type": "Feature", "properties": { "ten": "117", "toaDoX": "105.702607310265", "toaDoY": "20.5819514695357", "ghiChu": null }, "geometry": { "type": "Point", "coordinates": [ 105.7026073, 20.5819515 ] } },
{ "type": "Feature", "properties": { "ten": "118", "toaDoX": "105.703422328366", "toaDoY": "20.5824394468242", "ghiChu": null }, "geometry": { "type": "Point", "coordinates": [ 105.7034223, 20.5824394 ] } },
{ "type": "Feature", "properties": { "ten": "119", "toaDoX": "105.703592036292", "toaDoY": "20.5827294217523", "ghiChu": null }, "geometry": { "type": "Point", "coordinates": [ 105.703592, 20.5827294 ] } },
{ "type": "Feature", "properties": { "ten": "120", "toaDoX": "105.703806402167", "toaDoY": "20.5813314510712", "ghiChu": null }, "geometry": { "type": "Point", "coordinates": [ 105.7038064, 20.5813315 ] } },
{ "type": "Feature", "properties": { "ten": "121", "toaDoX": "105.703409561509", "toaDoY": "20.5810249910964", "ghiChu": null }, "geometry": { "type": "Point", "coordinates": [ 105.7034096, 20.581025 ] } },
{ "type": "Feature", "properties": { "ten": "122", "toaDoX": "105.703750640144", "toaDoY": "20.5806310951705", "ghiChu": null }, "geometry": { "type": "Point", "coordinates": [ 105.7037506, 20.5806311 ] } },
{ "type": "Feature", "properties": { "ten": "123", "toaDoX": "105.704991820813", "toaDoY": "20.5791977071047", "ghiChu": null }, "geometry": { "type": "Point", "coordinates": [ 105.7049918, 20.5791977 ] } },
{ "type": "Feature", "properties": { "ten": "124", "toaDoX": "105.705336489116", "toaDoY": "20.5787996603642", "ghiChu": null }, "geometry": { "type": "Point", "coordinates": [ 105.7053365, 20.5787997 ] } },
{ "type": "Feature", "properties": { "ten": "125", "toaDoX": "105.706430407163", "toaDoY": "20.5788487508276", "ghiChu": null }, "geometry": { "type": "Point", "coordinates": [ 105.7064304, 20.5788488 ] } },
{ "type": "Feature", "properties": { "ten": "126", "toaDoX": "105.707471920192", "toaDoY": "20.5786233005657", "ghiChu": null }, "geometry": { "type": "Point", "coordinates": [ 105.7074719, 20.5786233 ] } },
{ "type": "Feature", "properties": { "ten": "127", "toaDoX": "105.707686401949", "toaDoY": "20.5788027350363", "ghiChu": null }, "geometry": { "type": "Point", "coordinates": [ 105.7076864, 20.5788027 ] } },
{ "type": "Feature", "properties": { "ten": "128", "toaDoX": "105.707260860117", "toaDoY": "20.5786126199358", "ghiChu": null }, "geometry": { "type": "Point", "coordinates": [ 105.7072609, 20.5786126 ] } },
{ "type": "Feature", "properties": { "ten": "129", "toaDoX": "105.707135365472", "toaDoY": "20.5793068610066", "ghiChu": null }, "geometry": { "type": "Point", "coordinates": [ 105.7071354, 20.5793069 ] } },
{ "type": "Feature", "properties": { "ten": "130", "toaDoX": "105.706552574448", "toaDoY": "20.5797339062275", "ghiChu": null }, "geometry": { "type": "Point", "coordinates": [ 105.7065526, 20.5797339 ] } },
{ "type": "Feature", "properties": { "ten": "131", "toaDoX": "105.706145286383", "toaDoY": "20.5799571295968", "ghiChu": null }, "geometry": { "type": "Point", "coordinates": [ 105.7061453, 20.5799571 ] } },
{ "type": "Feature", "properties": { "ten": "132", "toaDoX": "105.705888592791", "toaDoY": "20.5798182825634", "ghiChu": null }, "geometry": { "type": "Point", "coordinates": [ 105.7058886, 20.5798183 ] } },
{ "type": "Feature", "properties": { "ten": "133", "toaDoX": "105.705598813348", "toaDoY": "20.5791689031505", "ghiChu": null }, "geometry": { "type": "Point", "coordinates": [ 105.7055988, 20.5791689 ] } },
{ "type": "Feature", "properties": { "ten": "134", "toaDoX": "105.705834972352", "toaDoY": "20.5791795837414", "ghiChu": null }, "geometry": { "type": "Point", "coordinates": [ 105.705835, 20.5791796 ] } },
{ "type": "Feature", "properties": { "ten": "135", "toaDoX": "105.705787056214", "toaDoY": "20.5789157720847", "ghiChu": null }, "geometry": { "type": "Point", "coordinates": [ 105.7057871, 20.5789158 ] } },
{ "type": "Feature", "properties": { "ten": "136", "toaDoX": "105.706649548482", "toaDoY": "20.5779662613035", "ghiChu": null }, "geometry": { "type": "Point", "coordinates": [ 105.7066495, 20.5779663 ] } },
{ "type": "Feature", "properties": { "ten": "137", "toaDoX": "105.706606194888", "toaDoY": "20.5784746614521", "ghiChu": null }, "geometry": { "type": "Point", "coordinates": [ 105.7066062, 20.5784747 ] } },
{ "type": "Feature", "properties": { "ten": "138", "toaDoX": "105.706970130257", "toaDoY": "20.5783080425372", "ghiChu": null }, "geometry": { "type": "Point", "coordinates": [ 105.7069701, 20.578308 ] } },
{ "type": "Feature", "properties": { "ten": "139", "toaDoX": "105.707369813185", "toaDoY": "20.5782098696565", "ghiChu": null }, "geometry": { "type": "Point", "coordinates": [ 105.7073698, 20.5782099 ] } },
{ "type": "Feature", "properties": { "ten": "140", "toaDoX": "105.707726902493", "toaDoY": "20.5778883806572", "ghiChu": null }, "geometry": { "type": "Point", "coordinates": [ 105.7077269, 20.5778884 ] } },
{ "type": "Feature", "properties": { "ten": "141", "toaDoX": "105.707356121962", "toaDoY": "20.5776491332161", "ghiChu": null }, "geometry": { "type": "Point", "coordinates": [ 105.7073561, 20.5776491 ] } },
{ "type": "Feature", "properties": { "ten": "142", "toaDoX": "105.706924876726", "toaDoY": "20.5778125478035", "ghiChu": null }, "geometry": { "type": "Point", "coordinates": [ 105.7069249, 20.5778125 ] } },
{ "type": "Feature", "properties": { "ten": "143", "toaDoX": "105.706616846212", "toaDoY": "20.5773209823027", "ghiChu": null }, "geometry": { "type": "Point", "coordinates": [ 105.7066168, 20.577321 ] } },
{ "type": "Feature", "properties": { "ten": "144", "toaDoX": "105.706986210101", "toaDoY": "20.576944123962", "ghiChu": null }, "geometry": { "type": "Point", "coordinates": [ 105.7069862, 20.5769441 ] } },
{ "type": "Feature", "properties": { "ten": "145", "toaDoX": "105.70786234598", "toaDoY": "20.5765280132639", "ghiChu": null }, "geometry": { "type": "Point", "coordinates": [ 105.7078623, 20.576528 ] } },
{ "type": "Feature", "properties": { "ten": "146", "toaDoX": "105.708394582515", "toaDoY": "20.5763478654679", "ghiChu": null }, "geometry": { "type": "Point", "coordinates": [ 105.7083946, 20.5763479 ] } },
{ "type": "Feature", "properties": { "ten": "147", "toaDoX": "105.708891667074", "toaDoY": "20.5761796160397", "ghiChu": null }, "geometry": { "type": "Point", "coordinates": [ 105.7088917, 20.5761796 ] } },
{ "type": "Feature", "properties": { "ten": "148", "toaDoX": "105.709313395557", "toaDoY": "20.5760641885004", "ghiChu": null }, "geometry": { "type": "Point", "coordinates": [ 105.7093134, 20.5760642 ] } },
{ "type": "Feature", "properties": { "ten": "149", "toaDoX": "105.709880871204", "toaDoY": "20.5760494044104", "ghiChu": null }, "geometry": { "type": "Point", "coordinates": [ 105.7098809, 20.5760494 ] } },
{ "type": "Feature", "properties": { "ten": "150", "toaDoX": "105.705646688163", "toaDoY": "20.5813861475288", "ghiChu": null }, "geometry": { "type": "Point", "coordinates": [ 105.7056467, 20.5813861 ] } },
{ "type": "Feature", "properties": { "ten": "151", "toaDoX": "105.705719118426", "toaDoY": "20.5809709000161", "ghiChu": null }, "geometry": { "type": "Point", "coordinates": [ 105.7057191, 20.5809709 ] } },
{ "type": "Feature", "properties": { "ten": "152", "toaDoX": "105.70492957475", "toaDoY": "20.5814423022242", "ghiChu": null }, "geometry": { "type": "Point", "coordinates": [ 105.7049296, 20.5814423 ] } },
{ "type": "Feature", "properties": { "ten": "153", "toaDoX": "105.704442818122", "toaDoY": "20.5805964828134", "ghiChu": null }, "geometry": { "type": "Point", "coordinates": [ 105.7044428, 20.5805965 ] } },
{ "type": "Feature", "properties": { "ten": "154", "toaDoX": "105.704853812635", "toaDoY": "20.58089372901", "ghiChu": null }, "geometry": { "type": "Point", "coordinates": [ 105.7048538, 20.5808937 ] } },
{ "type": "Feature", "properties": { "ten": "155", "toaDoX": "105.70461833725", "toaDoY": "20.5807784177279", "ghiChu": null }, "geometry": { "type": "Point", "coordinates": [ 105.7046183, 20.5807784 ] } },
{ "type": "Feature", "properties": { "ten": "156", "toaDoX": "105.704742515863", "toaDoY": "20.580250374789", "ghiChu": null }, "geometry": { "type": "Point", "coordinates": [ 105.7047425, 20.5802504 ] } },
{ "type": "Feature", "properties": { "ten": "157", "toaDoX": "105.705162163848", "toaDoY": "20.5805376240435", "ghiChu": null }, "geometry": { "type": "Point", "coordinates": [ 105.7051622, 20.5805376 ] } },
{ "type": "Feature", "properties": { "ten": "158", "toaDoX": "105.704346521418", "toaDoY": "20.5799429387798", "ghiChu": null }, "geometry": { "type": "Point", "coordinates": [ 105.7043465, 20.5799429 ] } },
{ "type": "Feature", "properties": { "ten": "159", "toaDoX": "105.703874921165", "toaDoY": "20.5795941961361", "ghiChu": null }, "geometry": { "type": "Point", "coordinates": [ 105.7038749, 20.5795942 ] } },
{ "type": "Feature", "properties": { "ten": "160", "toaDoX": "105.707641132248", "toaDoY": "20.5775807388904", "ghiChu": null }, "geometry": { "type": "Point", "coordinates": [ 105.7076411, 20.5775807 ] } },
{ "type": "Feature", "properties": { "ten": "161", "toaDoX": "105.708116160472", "toaDoY": "20.5779001765017", "ghiChu": null }, "geometry": { "type": "Point", "coordinates": [ 105.7081162, 20.5779002 ] } },
{ "type": "Feature", "properties": { "ten": "162", "toaDoX": "105.708759406318", "toaDoY": "20.5788071611848", "ghiChu": null }, "geometry": { "type": "Point", "coordinates": [ 105.7087594, 20.5788072 ] } },
{ "type": "Feature", "properties": { "ten": "163", "toaDoX": "105.708621845502", "toaDoY": "20.5777537653317", "ghiChu": null }, "geometry": { "type": "Point", "coordinates": [ 105.7086218, 20.5777538 ] } },
{ "type": "Feature", "properties": { "ten": "164", "toaDoX": "105.70914206707", "toaDoY": "20.5776813006148", "ghiChu": null }, "geometry": { "type": "Point", "coordinates": [ 105.7091421, 20.5776813 ] } },
{ "type": "Feature", "properties": { "ten": "165", "toaDoX": "105.708813496576", "toaDoY": "20.5771971792439", "ghiChu": null }, "geometry": { "type": "Point", "coordinates": [ 105.7088135, 20.5771972 ] } },
{ "type": "Feature", "properties": { "ten": "166", "toaDoX": "105.708296765862", "toaDoY": "20.5769305198855", "ghiChu": null }, "geometry": { "type": "Point", "coordinates": [ 105.7082968, 20.5769305 ] } },
{ "type": "Feature", "properties": { "ten": "167", "toaDoX": "105.7087831973", "toaDoY": "20.5767658756457", "ghiChu": null }, "geometry": { "type": "Point", "coordinates": [ 105.7087832, 20.5767659 ] } },
{ "type": "Feature", "properties": { "ten": "168", "toaDoX": "105.709250665303", "toaDoY": "20.576607649783", "ghiChu": null }, "geometry": { "type": "Point", "coordinates": [ 105.7092507, 20.5766076 ] } },
{ "type": "Feature", "properties": { "ten": "169", "toaDoX": "105.709843281201", "toaDoY": "20.5769101137684", "ghiChu": null }, "geometry": { "type": "Point", "coordinates": [ 105.7098433, 20.5769101 ] } },
{ "type": "Feature", "properties": { "ten": "170", "toaDoX": "105.709756211992", "toaDoY": "20.5775148608078", "ghiChu": null }, "geometry": { "type": "Point", "coordinates": [ 105.7097562, 20.5775149 ] } },
{ "type": "Feature", "properties": { "ten": "171", "toaDoX": "105.709591267831", "toaDoY": "20.5780310627142", "ghiChu": null }, "geometry": { "type": "Point", "coordinates": [ 105.7095913, 20.5780311 ] } },
{ "type": "Feature", "properties": { "ten": "172", "toaDoX": "105.709312270866", "toaDoY": "20.578428257849", "ghiChu": null }, "geometry": { "type": "Point", "coordinates": [ 105.7093123, 20.5784283 ] } },
{ "type": "Feature", "properties": { "ten": "173", "toaDoX": "105.710306702293", "toaDoY": "20.576591743003", "ghiChu": null }, "geometry": { "type": "Point", "coordinates": [ 105.7103067, 20.5765917 ] } },
{ "type": "Feature", "properties": { "ten": "174", "toaDoX": "105.710368828879", "toaDoY": "20.5769979364155", "ghiChu": null }, "geometry": { "type": "Point", "coordinates": [ 105.7103688, 20.5769979 ] } },
{ "type": "Feature", "properties": { "ten": "175", "toaDoX": "105.71034209861", "toaDoY": "20.5773605320811", "ghiChu": null }, "geometry": { "type": "Point", "coordinates": [ 105.7103421, 20.5773605 ] } },
{ "type": "Feature", "properties": { "ten": "176", "toaDoX": "105.710227123237", "toaDoY": "20.5777339850282", "ghiChu": null }, "geometry": { "type": "Point", "coordinates": [ 105.7102271, 20.577734 ] } },
{ "type": "Feature", "properties": { "ten": "177", "toaDoX": "105.709969169308", "toaDoY": "20.5785376460978", "ghiChu": null }, "geometry": { "type": "Point", "coordinates": [ 105.7099692, 20.5785376 ] } },
{ "type": "Feature", "properties": { "ten": "178", "toaDoX": "105.709703839312", "toaDoY": "20.578851180457", "ghiChu": null }, "geometry": { "type": "Point", "coordinates": [ 105.7097038, 20.5788512 ] } },
{ "type": "Feature", "properties": { "ten": "179", "toaDoX": "105.709387432008", "toaDoY": "20.5790444422529", "ghiChu": null }, "geometry": { "type": "Point", "coordinates": [ 105.7093874, 20.5790444 ] } },
{ "type": "Feature", "properties": { "ten": "180", "toaDoX": "105.709737320421", "toaDoY": "20.579498285504", "ghiChu": null }, "geometry": { "type": "Point", "coordinates": [ 105.7097373, 20.5794983 ] } },
{ "type": "Feature", "properties": { "ten": "181", "toaDoX": "105.71007125206", "toaDoY": "20.579294319312", "ghiChu": null }, "geometry": { "type": "Point", "coordinates": [ 105.7100713, 20.5792943 ] } },
{ "type": "Feature", "properties": { "ten": "182", "toaDoX": "105.711022843729", "toaDoY": "20.5790998787621", "ghiChu": null }, "geometry": { "type": "Point", "coordinates": [ 105.7110228, 20.5790999 ] } },
{ "type": "Feature", "properties": { "ten": "183", "toaDoX": "105.711336423137", "toaDoY": "20.5792437505296", "ghiChu": null }, "geometry": { "type": "Point", "coordinates": [ 105.7113364, 20.5792438 ] } },
{ "type": "Feature", "properties": { "ten": "184", "toaDoX": "105.711393911722", "toaDoY": "20.5796895373587", "ghiChu": null }, "geometry": { "type": "Point", "coordinates": [ 105.7113939, 20.5796895 ] } },
{ "type": "Feature", "properties": { "ten": "185", "toaDoX": "105.710806168286", "toaDoY": "20.5803387799984", "ghiChu": null }, "geometry": { "type": "Point", "coordinates": [ 105.7108062, 20.5803388 ] } },
{ "type": "Feature", "properties": { "ten": "186", "toaDoX": "105.709828054757", "toaDoY": "20.5801742689476", "ghiChu": null }, "geometry": { "type": "Point", "coordinates": [ 105.7098281, 20.5801743 ] } },
{ "type": "Feature", "properties": { "ten": "187", "toaDoX": "105.710787552498", "toaDoY": "20.581289989093", "ghiChu": null }, "geometry": { "type": "Point", "coordinates": [ 105.7107876, 20.58129 ] } },
{ "type": "Feature", "properties": { "ten": "188", "toaDoX": "105.710961378302", "toaDoY": "20.5764408942687", "ghiChu": null }, "geometry": { "type": "Point", "coordinates": [ 105.7109614, 20.5764409 ] } },
{ "type": "Feature", "properties": { "ten": "189", "toaDoX": "105.711409644815", "toaDoY": "20.5768120610931", "ghiChu": null }, "geometry": { "type": "Point", "coordinates": [ 105.7114096, 20.5768121 ] } },
{ "type": "Feature", "properties": { "ten": "190", "toaDoX": "105.711722563063", "toaDoY": "20.577241023211", "ghiChu": null }, "geometry": { "type": "Point", "coordinates": [ 105.7117226, 20.577241 ] } },
{ "type": "Feature", "properties": { "ten": "191", "toaDoX": "105.712103790103", "toaDoY": "20.5777135596756", "ghiChu": null }, "geometry": { "type": "Point", "coordinates": [ 105.7121038, 20.5777136 ] } },
{ "type": "Feature", "properties": { "ten": "192", "toaDoX": "105.711343890832", "toaDoY": "20.5776997311208", "ghiChu": null }, "geometry": { "type": "Point", "coordinates": [ 105.7113439, 20.5776997 ] } },
{ "type": "Feature", "properties": { "ten": "193", "toaDoX": "105.711657084862", "toaDoY": "20.5781527886748", "ghiChu": null }, "geometry": { "type": "Point", "coordinates": [ 105.7116571, 20.5781528 ] } },
{ "type": "Feature", "properties": { "ten": "194", "toaDoX": "105.71273123638", "toaDoY": "20.5785963340763", "ghiChu": null }, "geometry": { "type": "Point", "coordinates": [ 105.7127312, 20.5785963 ] } },
{ "type": "Feature", "properties": { "ten": "195", "toaDoX": "105.713036120096", "toaDoY": "20.5780879200361", "ghiChu": null }, "geometry": { "type": "Point", "coordinates": [ 105.7130361, 20.5780879 ] } },
{ "type": "Feature", "properties": { "ten": "196", "toaDoX": "105.711912866665", "toaDoY": "20.5765549145203", "ghiChu": null }, "geometry": { "type": "Point", "coordinates": [ 105.7119129, 20.5765549 ] } },
{ "type": "Feature", "properties": { "ten": "197", "toaDoX": "105.712553055543", "toaDoY": "20.5767995334906", "ghiChu": null }, "geometry": { "type": "Point", "coordinates": [ 105.7125531, 20.5767995 ] } },
{ "type": "Feature", "properties": { "ten": "198", "toaDoX": "105.713267075159", "toaDoY": "20.5772242796999", "ghiChu": null }, "geometry": { "type": "Point", "coordinates": [ 105.7132671, 20.5772243 ] } },
{ "type": "Feature", "properties": { "ten": "199", "toaDoX": "105.714231841519", "toaDoY": "20.575502686425", "ghiChu": null }, "geometry": { "type": "Point", "coordinates": [ 105.7142318, 20.5755027 ] } },
{ "type": "Feature", "properties": { "ten": "200", "toaDoX": "105.715483454323", "toaDoY": "20.5754442335813", "ghiChu": null }, "geometry": { "type": "Point", "coordinates": [ 105.7154835, 20.5754442 ] } },
{ "type": "Feature", "properties": { "ten": "201", "toaDoX": "105.714341629122", "toaDoY": "20.5764895591008", "ghiChu": null }, "geometry": { "type": "Point", "coordinates": [ 105.7143416, 20.5764896 ] } },
{ "type": "Feature", "properties": { "ten": "202", "toaDoX": "105.715823761306", "toaDoY": "20.5765284993653", "ghiChu": null }, "geometry": { "type": "Point", "coordinates": [ 105.7158238, 20.5765285 ] } },
{ "type": "Feature", "properties": { "ten": "203", "toaDoX": "105.71691229575", "toaDoY": "20.5759784905458", "ghiChu": null }, "geometry": { "type": "Point", "coordinates": [ 105.7169123, 20.5759785 ] } },
{ "type": "Feature", "properties": { "ten": "204", "toaDoX": "105.717279240475", "toaDoY": "20.5767948718026", "ghiChu": null }, "geometry": { "type": "Point", "coordinates": [ 105.7172792, 20.5767949 ] } },
{ "type": "Feature", "properties": { "ten": "205", "toaDoX": "105.71683503794", "toaDoY": "20.5774562161455", "ghiChu": null }, "geometry": { "type": "Point", "coordinates": [ 105.716835, 20.5774562 ] } },
{ "type": "Feature", "properties": { "ten": "206", "toaDoX": "105.715541765765", "toaDoY": "20.5771833691443", "ghiChu": null }, "geometry": { "type": "Point", "coordinates": [ 105.7155418, 20.5771834 ] } },
{ "type": "Feature", "properties": { "ten": "207", "toaDoX": "105.7156826225", "toaDoY": "20.5777222572918", "ghiChu": null }, "geometry": { "type": "Point", "coordinates": [ 105.7156826, 20.5777223 ] } },
{ "type": "Feature", "properties": { "ten": "208", "toaDoX": "105.714859489917", "toaDoY": "20.5772338292791", "ghiChu": null }, "geometry": { "type": "Point", "coordinates": [ 105.7148595, 20.5772338 ] } },
{ "type": "Feature", "properties": { "ten": "209", "toaDoX": "105.715003316482", "toaDoY": "20.5777689268653", "ghiChu": null }, "geometry": { "type": "Point", "coordinates": [ 105.7150033, 20.5777689 ] } },
{ "type": "Feature", "properties": { "ten": "210", "toaDoX": "105.714972645303", "toaDoY": "20.5792845427942", "ghiChu": null }, "geometry": { "type": "Point", "coordinates": [ 105.7149726, 20.5792845 ] } },
{ "type": "Feature", "properties": { "ten": "211", "toaDoX": "105.714283140712", "toaDoY": "20.5800069883498", "ghiChu": null }, "geometry": { "type": "Point", "coordinates": [ 105.7142831, 20.580007 ] } },
{ "type": "Feature", "properties": { "ten": "212", "toaDoX": "105.71383538534", "toaDoY": "20.5802683828101", "ghiChu": null }, "geometry": { "type": "Point", "coordinates": [ 105.7138354, 20.5802684 ] } },
{ "type": "Feature", "properties": { "ten": "213", "toaDoX": "105.71303625664", "toaDoY": "20.580973449031", "ghiChu": null }, "geometry": { "type": "Point", "coordinates": [ 105.7130363, 20.5809734 ] } },
{ "type": "Feature", "properties": { "ten": "214", "toaDoX": "105.71286444935", "toaDoY": "20.5814509054382", "ghiChu": null }, "geometry": { "type": "Point", "coordinates": [ 105.7128644, 20.5814509 ] } },
{ "type": "Feature", "properties": { "ten": "215", "toaDoX": "105.703939242336", "toaDoY": "20.5784363692506", "ghiChu": null }, "geometry": { "type": "Point", "coordinates": [ 105.7039392, 20.5784364 ] } },
{ "type": "Feature", "properties": { "ten": "216", "toaDoX": "105.704607296057", "toaDoY": "20.5767585580638", "ghiChu": null }, "geometry": { "type": "Point", "coordinates": [ 105.7046073, 20.5767586 ] } },
{ "type": "Feature", "properties": { "ten": "217", "toaDoX": "105.704641194882", "toaDoY": "20.574752441639", "ghiChu": null }, "geometry": { "type": "Point", "coordinates": [ 105.7046412, 20.5747524 ] } },
{ "type": "Feature", "properties": { "ten": "218", "toaDoX": "105.701994294525", "toaDoY": "20.5805485854273", "ghiChu": null }, "geometry": { "type": "Point", "coordinates": [ 105.7019943, 20.5805486 ] } },
{ "type": "Feature", "properties": { "ten": "219", "toaDoX": "105.710779002333", "toaDoY": "20.5776138129015", "ghiChu": null }, "geometry": { "type": "Point", "coordinates": [ 105.710779, 20.5776138 ] } },
{ "type": "Feature", "properties": { "ten": "220", "toaDoX": "105.711217920079", "toaDoY": "20.5782914227696", "ghiChu": null }, "geometry": { "type": "Point", "coordinates": [ 105.7112179, 20.5782914 ] } },
{ "type": "Feature", "properties": { "ten": "221", "toaDoX": "105.712214004406", "toaDoY": "20.5783381510388", "ghiChu": null }, "geometry": { "type": "Point", "coordinates": [ 105.712214, 20.5783382 ] } }
]
}
